[
  {
    "id": 0,
    "name": "carlos",
    "surname": "Martinez",
    "nif": "48142332G",
    "direction": {
      "city": "Esplugues de Llobregat",
      "state": "Barcelona",
      "postalCode": "08950"
    },
    "hasVoted": false
  },
  {
    "id": 1,
    "name": "Cristian",
    "surname": "Vega",
    "nif": "23442332J",
    "direction": {
      "city": "Mollet del Valles",
      "state": "Barcelona",
      "postalCode": "08100"
    },
    "hasVoted": false
  },
  {
    "id": 2,
    "name": "Jordina",
    "surname": "Pidelaserra",
    "nif": "09876523H",
    "direction": {
      "city": "Castellbisbal",
      "state": "Barcelona",
      "postalCode": "08970"
    },
    "hasVoted": false
  },
  {
    "id": 3,
    "name": "Juan",
    "surname": "Pedro",
    "nif": "48121332G",
    "direction": {
      "city": "Cornella de Llobregat",
      "state": "Barcelona",
      "postalCode": "08910"
    },
    "hasVoted": false
  },
  {
    "id": 4,
    "name": "Julio",
    "surname": "Iglesias",
    "nif": "48142312X",
    "direction": {
      "city": "Badalona",
      "state": "Barcelona",
      "postalCode": "08434"
    },
    "hasVoted": false
  },
  {
    "id": 5,
    "name": "Whiski",
    "surname": "Alejandro",
    "nif": "65142332G",
    "direction": {
      "city": "Barcelona",
      "state": "Barcelona",
      "postalCode": "08980"
    },
    "hasVoted": false
  },
  {
    "id": 6,
    "name": "Ana",
    "surname": "Rojas",
    "nif": "11142332G",
    "direction": {
      "city": "Esplugues de Llobregat",
      "state": "Barcelona",
      "postalCode": "08950"
    },
    "hasVoted": false
  },
  {
    "id": 7,
    "name": "Pepito",
    "surname": "Grillo",
    "nif": "67222332G",
    "direction": {
      "city": "Ripollet",
      "state": "Barcelona",
      "postalCode": "08990"
    },
    "hasVoted": false
  },
  {
    "id": 8,
    "name": "Pepita",
    "surname": "Martinez",
    "nif": "33342332G",
    "direction": {
      "city": "Esplugues de Llobregat",
      "state": "Barcelona",
      "postalCode": "08950"
    },
    "hasVoted": false
  },
  {
    "id": 9,
    "name": "Josefa",
    "surname": "Galvez",
    "nif": "48142344H",
    "direction": {
      "city": "Barcelona",
      "state": "Barcelona",
      "postalCode": "08990"
    },
    "hasVoted": false
  }
]